ONEWEB-0198             
1 48216U 21031G   23325.92262329 -.00000171  00000+0 -49590-3 0  9998
2 48216  87.8944 116.4931 0001530 115.4402 244.6886 13.14503383125203
ONEWEB-0189             
1 48217U 21031H   23325.93531013  .00000090  00000+0  20802-3 0  9992
2 48217  87.8939 116.4675 0001581 117.0711 243.0580 13.14504410124968
ONEWEB-0196             
1 48218U 21031J   23325.83698709 -.00000800  00000+0 -21915-2 0  9994
2 48218  87.8946 116.4836 0001459  99.2526 260.8769 13.14503145124954
ONEWEB-0183             
1 48219U 21031K   23326.49668757  .00000253  00000+0  64895-3 0  9993
2 48219  87.8949 116.3734 0001642  98.3707 261.7609 13.14501691125137
ONEWEB-0185             
1 48220U 21031L   23325.91389960 -.00000191  00000+0 -55004-3 0  9992
2 48220  87.8945 116.4624 0001743 100.1160 260.0167 13.14506488124983
ONEWEB-0187             
1 48221U 21031M   23326.49776815  .00000222  00000+0  56067-3 0  9999
2 48221  87.8949 116.3762 0001598  99.4662 260.6648 13.15008264125076
ONEWEB-0192             
1 48222U 21031N   23325.86395336  .00000172  00000+0  42943-3 0  9997
2 48222  87.8984 116.4846 0001472 102.5206 257.6089 13.14503572124908
ONEWEB-0219             
1 48223U 21031P   23325.91947318  .00002644  00000+0  70951-2 0  9992
2 48223  87.8941 116.4645 0001615 100.2278 259.9034 13.14490995125126
